[{"OBJECT_NAME":"STARLINK-3056","OBJECT_ID":"2021-082AF","EPOCH":"2026-03-09T21:20:27.846816","MEAN_MOTION":14.98317734,"ECCENTRICITY":0.00029466,"INCLINATION":69.998,"RA_OF_ASC_NODE":293.9534,"ARG_OF_PERICENTER":270.2418,"MEAN_ANOMALY":89.8404,"EPHEMERIS_TYPE":0,"CLASSIFICATION_TYPE":"U","NORAD_CAT_ID":49159,"ELEMENT_SET_NO":999,"REV_AT_EPOCH":24710,"BSTAR":9.1259836e-5,"MEAN_MOTION_DOT":9.96e-6,"MEAN_MOTION_DDOT":0},{"OBJECT_NAME":"DIAMANT R\/B","OBJECT_ID":"1967-014B","EPOCH":"2026-03-09T02:55:04.321920","MEAN_MOTION":13.32505224,"ECCENTRICITY":0.07458552,"INCLINATION":39.4593,"RA_OF_ASC_NODE":351.3401,"ARG_OF_PERICENTER":99.88,"MEAN_ANOMALY":268.6882,"EPHEMERIS_TYPE":0,"CLASSIFICATION_TYPE":"U","NORAD_CAT_ID":2682,"ELEMENT_SET_NO":999,"REV_AT_EPOCH":85053,"BSTAR":0.00040415206,"MEAN_MOTION_DOT":8.97e-6,"MEAN_MOTION_DDOT":0}]
